ELEKTRO-L 1 (GOMS 2)    
1 37344U 11001A   25061.27406166 -.00000103  00000+0  00000+0 0  9993
2 37344   8.6082  59.1625 0003898  14.9628 173.2073  1.00253507 51757
RESOURCESAT-2           
1 37387U 11015A   25063.85711158 -.00000037  00000+0  35143-5 0  9999
2 37387  98.8206 128.0926 0014563 121.5976 238.6625 14.21521628720026
YOUTHSAT                
1 37388U 11015B   25063.92365115  .00000451  00000+0  20873-3 0  9997
2 37388  98.3191  55.7153 0013319 281.7374 140.4937 14.25298137720781
APRIZESAT 6             
1 37793U 11044F   25063.67428772  .00001574  00000+0  23427-3 0  9995
2 37793  98.2719 319.1886 0044751 145.2005 243.9144 14.75748820727875
JUGNU                   
1 37839U 11058B   25063.91991580  .00000603  00000+0  17573-3 0  9997
2 37839  19.9608 278.8995 0018625 294.5572 192.9628 14.13530500692544
SRMSAT                  
1 37841U 11058D   25063.94928072  .00000573  00000+0  16770-3 0  9993
2 37841  19.9732  19.2808 0011893  82.6475 322.9331 14.11376015691444
SUOMI NPP               
1 37849U 11061A   25063.90651786  .00000186  00000+0  10904-3 0  9999
2 37849  98.7493   4.2875 0000860 156.8739 203.2476 14.19566678691869
YAOGAN-12               
1 37875U 11066B   25063.86386371  .00010974  00000+0  46227-3 0  9996
2 37875  97.1809 118.9770 0012539  85.7811 274.4859 15.23435346741118
ZIYUAN 3-1 (ZY 3-1)     
1 38046U 12001A   25063.92808192  .00023873  00000+0  45783-3 0  9992
2 38046  97.2052 128.5410 0001918 278.6419  81.4614 15.47996778731003
BEIDOU-2 M4             
1 38251U 12018B   25063.82216199 -.00000073  00000+0  00000+0 0  9994
2 38251  56.0512 319.8968 0013194 280.0767  79.8224  1.86231993 87203
ARIRANG-3 (KOMPSAT-3)   
1 38338U 12025B   25063.85086993  .00001215  00000+0  25036-3 0  9996
2 38338  98.2948  16.9172 0008040 127.0449 233.1489 14.62261666682772
HORYU-2                 
1 38340U 12025D   25063.81889054  .00005757  00000+0  65917-3 0  9991
2 38340  98.1679 175.7170 0008297 272.2936  87.7328 14.86343595678885
CSSWE                   
1 38761U 12048D   25063.88391913  .00021143  00000+0  81781-3 0  9996
2 38761  64.6642 212.2095 0119239 300.6144  58.3264 15.19805320 44537
CP5                     
1 38763U 12048F   25063.87241539  .00012108  00000+0  56140-3 0  9997
2 38763  64.6564 246.1320 0130564 304.6661  54.2210 15.13058575 45411
METOP-B                 
1 38771U 12049A   25063.89370961  .00000206  00000+0  11381-3 0  9995
2 38771  98.5914 120.7723 0000341 101.5204 258.6012 14.21444753646596
SJ-9A                   
1 38860U 12056A   25063.91932301  .00002454  00000+0  29971-3 0  9998
2 38860  97.6180  50.0394 0026493   5.6389 354.5119 14.83917045629955
COSMOS 2484             
1 39059U 13001C   25063.86398009  .00000036  00000+0  18880-3 0  9996
2 39059  82.5054 153.7363 0025336 339.0005  21.0032 12.42916582550456
SARAL                   
1 39086U 13009A   25063.88371697  .00000248  00000+0  10715-3 0  9994
2 39086  98.5528 251.4871 0001204 202.9243 157.1887 14.32671158628407
AAUSAT 3                
1 39087U 13009B   25063.78545794  .00001591  00000+0  52967-3 0  9992
2 39087  98.3670 253.6695 0011769 177.3089 182.8164 14.38934812629647
STRAND-1                
1 39090U 13009E   25063.52587087  .00000768  00000+0  27515-3 0  9995
2 39090  98.3811 250.7708 0008601 187.9823 172.1228 14.36673177629639
BRITE-AUSTRIA           
1 39091U 13009F   25063.77702499  .00000493  00000+0  18338-3 0  9997
2 39091  98.3866 250.2815 0009947 195.9245 164.1630 14.36212571629663
UNIBRITE                
1 39092U 13009G   25063.74733728  .00000484  00000+0  18079-3 0  9996
2 39092  98.3905 250.2444 0008937 191.2615 168.8372 14.36084662629600
AIST-2 (RS-43)          
1 39133U 13015D   25063.89316026  .00008521  00000+0  41012-3 0  9996
2 39133  64.8737 343.6498 0027163 291.1465  68.6759 15.19030312652447
GAOFEN-1                
1 39150U 13018A   25063.90496491  .00001277  00000+0  19023-3 0  9993
2 39150  97.9586 139.0802 0017327 343.4945  16.5699 14.76509481638995
NEE-01 PEGASO           
1 39151U 13018B   25063.57011846  .00005774  00000+0  60811-3 0  9991
2 39151  98.0573 190.4055 0012829 267.6201  92.3547 14.89709652640699
TURKSAT-3USAT           
1 39152U 13018C   25063.80544757  .00006196  00000+0  61960-3 0  9995
2 39152  97.8102 152.6204 0012790 217.7921 142.2401 14.91744933640994
CUBEBUG-1 (CAPITAN BETO)
1 39153U 13018D   25063.93664295  .00006969  00000+0  68649-3 0  9999
2 39153  98.1029 201.4137 0012287 255.9120 104.0732 14.92328335640955
PROBA-V                 
1 39159U 13021A   25063.94583829  .00000161  00000+0  88901-4 0  9995
2 39159  98.3180  62.0456 0005366  72.7940 287.3827 14.23443313614354
ESTCUBE 1               
1 39161U 13021C   25063.15532840  .00002628  00000+0  36186-3 0  9995
2 39161  97.7924 127.7114 0009894 106.2381 253.9920 14.79051213635483
ARIRANG-5 (KOMPSAT-5)   
1 39227U 13042A   25063.88299500  .00005106  00000+0  36876-3 0  9994
2 39227  97.6185 252.1342 0001996 314.6134  45.4929 15.04517595633295
GONETS-M 5              
1 39249U 13048A   25063.89329484  .00000000  00000+0 -71046-4 0  9998
2 39249  82.4770 275.9201 0016473 154.1899 206.0006 12.42859912520588
GONETS-M 7              
1 39251U 13048C   25063.86700904 -.00000016  00000+0 -19084-3 0  9999
2 39251  82.4842 278.6162 0017264 155.3419 204.8490 12.42892586520539
FENGYUN 3C              
1 39260U 13052A   25063.95631051  .00000257  00000+0  15223-3 0  9996
2 39260  98.4489  55.9063 0013643 297.1128  62.8654 14.15572998592175
CASSIOPE                
1 39265U 13055A   25063.91268876  .00041163  00000+0  69838-3 0  9993
2 39265  80.9415 261.0801 0418388 164.9403 196.4736 14.90843289596959
APRIZESAT 7             
1 39416U 13066A   25063.81190479  .00003490  00000+0  36727-3 0  9997
2 39416  97.7091  21.3204 0036329 329.0689  30.8389 14.89560631611305
ZACUBE-1 (TSHEPISOSAT)  
1 39417U 13066B   25063.86793340  .00009685  00000+0  87266-3 0  9995
2 39417  97.7691  21.5599 0046218  17.5356 342.7447 14.94962203610451
APRIZESAT 8             
1 39425U 13066K   25063.89367055  .00002479  00000+0  28410-3 0  9997
2 39425  97.7653  15.1946 0048380  31.3954 329.0134 14.85976721609935
CINEMA-3 (KHUSAT-2)     
1 39426U 13066L   25063.82997702  .00003549  00000+0  48717-3 0  9990
2 39426  97.8471 343.7865 0091998 291.6782  67.4650 14.76109793605151
TRITON-1                
1 39427U 13066M   25063.90586202  .00006054  00000+0  78358-3 0  9997
2 39427  97.8395 340.1756 0095099 321.0082  38.4297 14.78073005604673
DELFI-N3XT              
1 39428U 13066N   25063.82575390  .00013070  00000+0  13964-2 0  9992
2 39428  97.8363 342.6974 0087175 320.0194  39.4623 14.86117370604696
GOMX-1                  
1 39430U 13066Q   25063.86062064  .00003462  00000+0  54712-3 0  9999
2 39430  97.6973 288.4204 0134715 141.3950 219.6982 14.66972531601046
BRITE-PL1 (LEM)         
1 39431U 13066R   25063.88833710  .00000964  00000+0  20369-3 0  9991
2 39431  97.7359 206.6087 0194140  31.3574 329.9029 14.50293373595889
ICUBE-1                 
1 39432U 13066S   25063.92089586  .00013899  00000+0  82078-3 0  9997
2 39432  97.5296  45.2162 0023577 155.7369 204.4977 15.11388941613195
HUMSAT-D                
1 39433U 13066T   25063.93556258  .00035122  00000+0  13255-2 0  9997
2 39433  97.5039  58.6142 0016759  99.4883 260.8250 15.26813388614281
VELOX-PII               
1 39438U 13066Y   25063.89971439  .00005191  00000+0  54393-3 0  9991
2 39438  97.8198  12.9145 0059646  94.3366 266.4669 14.88676669607906
FIRST-MOVE              
1 39439U 13066Z   25063.88950149  .00040402  00000+0  18849-2 0  9995
2 39439  97.7390  35.0161 0027867 333.0195  26.9588 15.19382612610187
CUBEBUG-2 (LO-74)       
1 39440U 13066AA  25063.79699686  .00006766  00000+0  70685-3 0  9995
2 39440  97.8405   9.1742 0065173 137.7555 222.8709 14.88434862607037
NEE-02 KRYSAOR          
1 39441U 13066AB  25063.76048053  .00003678  00000+0  43497-3 0  9999
2 39441  97.8474   3.6593 0070447 165.2906 195.0380 14.83455864606522
FUNCUBE-1 (AO-73)       
1 39444U 13066AE  25063.83897067  .00014058  00000+0  11183-2 0  9997
2 39444  97.7555  25.6705 0041566 356.0770   4.0121 14.99837631609070
HINCUBE                 
1 39445U 13066AF  25063.83637656  .00013550  00000+0  10946-2 0  9996
2 39445  97.7561  25.1739 0041769 359.0630   1.0508 14.99250329608981
UWE-3                   
1 39446U 13066AG  25063.84789584  .00007570  00000+0  74170-3 0  9991
2 39446  97.8137  15.4638 0056886  80.0702 280.6931 14.91324264607480
SMDC ONE 2.4            
1 39469U 13072H   25063.84091476  .00013939  00000+0  74151-3 0  9994
2 39469 120.4932 359.9927 0173243 227.6121 131.0165 15.03676091 46903
CP8 (IPEX)              
1 39471U 13072K   25063.73270727  .00011738  00000+0  71110-3 0  9990
2 39471 120.4673 328.9303 0187255 220.2730 138.4327 14.97714721 44662
COSMOS 2488             
1 39483U 13076A   25063.89725412  .00000030  00000+0  14813-3 0  9990
2 39483  82.4796 101.1642 0019852  41.9923 318.2675 12.42858691507597
COSMOS 2489             
1 39484U 13076B   25063.87078613  .00000045  00000+0  25563-3 0  9993
2 39484  82.4834 102.4174 0021817  42.3418 317.9341 12.42897946507641
COSMOS 2490             
1 39485U 13076C   25063.84087368  .00000027  00000+0  12526-3 0  9993
2 39485  82.4779 100.7046 0022112  57.4913 302.8299 12.42857224507577
AIST-1 (RS-41)          
1 39492U 13078C   25063.86456964  .00003748  00000+0  34922-3 0  9994
2 39492  82.4198   4.8016 0019094  52.2411 308.0536 14.93880599605123
KAZEOSAT 1              
1 39731U 14024A   25063.90113351  .00000395  00000+0  13369-3 0  9994
2 39731  98.3670 141.7326 0001183  85.5776 274.5548 14.42007416570920
COSMOS 2496             
1 39761U 14028A   25063.88420285  .00000040  00000+0  22077-3 0  9998
2 39761  82.4447  42.6678 0020491  25.8651 334.3448 12.42885265489219
